{
    "links": {
        "self": "http://www.neowsapp.com/rest/v1/neo/3616689?api_key=iIulBulltgU6a56xZRHN4H3l9WmuAYTsLGpBGhQ2"
    },
    "id": "3616689",
    "neo_reference_id": "3616689",
    "name": "(2012 VE6)",
    "designation": "2012 VE6",
    "nasa_jpl_url": "http://ssd.jpl.nasa.gov/sbdb.cgi?sstr=3616689",
    "absolute_magnitude_h": 23.5,
    "estimated_diameter": {
        "kilometers": {
            "estimated_diameter_min": 0.0530340723,
            "estimated_diameter_max": 0.1185877909
        },
        "meters": {
            "estimated_diameter_min": 53.0340723319,
            "estimated_diameter_max": 118.5877908577
        },
        "miles": {
            "estimated_diameter_min": 0.0329538346,
            "estimated_diameter_max": 0.0736870142
        },
        "feet": {
            "estimated_diameter_min": 173.9963058693,
            "estimated_diameter_max": 389.0675677576
        }
    },
    "is_potentially_hazardous_asteroid": false,
    "close_approach_data": [
        {
            "close_approach_date": "2010-10-16",
            "close_approach_date_full": "2010-Oct-16 00:14",
            "epoch_date_close_approach": 1287188040000,
            "relative_velocity": {
                "kilometers_per_second": "8.4202785933",
                "kilometers_per_hour": "30313.0029359879",
                "miles_per_hour": "18835.3211854198"
            },
            "miss_distance": {
                "astronomical": "0.2890302988",
                "lunar": "112.4327862332",
                "kilometers": "43238317.065943556",
                "miles": "26867044.3833748328"
            },
            "orbiting_body": "Earth"
        },
        {
            "close_approach_date": "2012-10-23",
            "close_approach_date_full": "2012-Oct-23 00:16",
            "epoch_date_close_approach": 1350951360000,
            "relative_velocity": {
                "kilometers_per_second": "8.3986721739",
                "kilometers_per_hour": "30235.2198259595",
                "miles_per_hour": "18786.9897857469"
            },
            "miss_distance": {
                "astronomical": "0.2462974512",
                "lunar": "95.8097085168",
                "kilometers": "36845574.085948944",
                "miles": "22894778.0920416672"
            },
            "orbiting_body": "Earth"
        },
        {
            "close_approach_date": "2014-10-30",
            "close_approach_date_full": "2014-Oct-30 16:31",
            "epoch_date_close_approach": 1414686660000,
            "relative_velocity": {
                "kilometers_per_second": "8.474344501",
                "kilometers_per_hour": "30507.6402035542",
                "miles_per_hour": "18956.2612142584"
            },
            "miss_distance": {
                "astronomical": "0.2634553539",
                "lunar": "102.4841326671",
                "kilometers": "39412359.783536193",
                "miles": "24489704.7667897434"
            },
            "orbiting_body": "Earth"
        }
    ],
    "orbital_data": {
        "orbit_id": "7",
        "orbit_determination_date": "2017-04-06 08:48:12",
        "first_observation_date": "2012-11-03",
        "last_observation_date": "2012-11-15",
        "data_arc_in_days": 12,
        "observations_used": 15,
        "orbit_uncertainty": "7",
        "minimum_orbit_intersection": ".245551",
        "jupiter_tisserand_invariant": "4.336",
        "epoch_osculation": "2459000.5",
        "eccentricity": ".2156285856710164",
        "semi_major_axis": "1.574535888286185",
        "inclination": "16.23875812697046",
        "ascending_node_longitude": "28.24158872171407",
        "orbital_period": "721.6510913882156",
        "perihelion_distance": "1.235020941606778",
        "perihelion_argument": "13.91696266248107",
        "aphelion_distance": "1.914050834965593",
        "perihelion_time": "2459127.163548864224",
        "mean_anomaly": "296.8131246037419",
        "mean_motion": ".4988560320853673",
        "equinox": "J2000",
        "orbit_class": {
            "orbit_class_type": "AMO",
            "orbit_class_description": "Near-Earth asteroid orbits similar to that of 1221 Amor",
            "orbit_class_range": "1.017 AU < q (perihelion) < 1.3 AU"
        }
    },
    "is_sentry_object": false
}